OBJECT_NAME,OBJECT_ID,EPOCH,MEAN_MOTION,ECCENTRICITY,INCLINATION,RA_OF_ASC_NODE,ARG_OF_PERICENTER,MEAN_ANOMALY,EPHEMERIS_TYPE,CLASSIFICATION_TYPE,NORAD_CAT_ID,ELEMENT_SET_NO,REV_AT_EPOCH,BSTAR,MEAN_MOTION_DOT,MEAN_MOTION_DDOT
STARLINK-31159,2024-005N,2026-07-01T18:15:44.382240,15.27588968,.00025472,43.0090,295.1687,269.8887,90.1673,0,U,58740,999,13798,.12512897E-3,.3183E-4,0
STARLINK-31148,2024-005P,2026-07-01T16:52:41.766816,15.27589242,.00018063,43.0048,295.6133,271.3176,88.7469,0,U,58741,999,13788,.10090993E-3,.2516E-4,0
STARLINK-31151,2024-005Q,2026-07-01T17:03:48.544128,15.27582890,.0001802,43.0045,295.6742,264.1648,95.8999,0,U,58742,999,13797,.13098474E-3,.3344E-4,0
STARLINK-31156,2024-005R,2026-07-01T15:35:12.254496,15.27580973,.00014986,43.0017,296.0758,275.0952,84.9728,0,U,58743,999,13792,.12856481E-3,.3277E-4,0
STARLINK-31167,2024-005S,2026-07-01T04:49:20.627616,15.27612505,.00015737,43.0018,153.2552,259.9199,100.1475,0,U,58744,999,13956,-.18859369E-3,-.5453E-4,0
STARLINK-31176,2024-005T,2026-07-01T15:55:35.209344,15.27509393,.00011472,43.0007,296.1775,353.1599,6.9236,0,U,58745,999,13791,.50780233E-3,.13708E-3,0
STARLINK-31181,2024-005U,2026-07-01T22:19:24.146112,15.27573905,.00007533,43.0002,142.3512,261.6606,98.4161,0,U,58746,999,13975,.1577806E-5,-.218E-5,0
STARLINK-31183,2024-005V,2026-07-01T16:06:39.502656,15.27584927,.00015104,43.0001,296.2307,263.8752,96.1928,0,U,58747,999,13797,.5741987E-4,.1318E-4,0
STARLINK-31165,2024-005W,2026-07-01T16:01:06.612096,15.27588708,.00010481,42.9973,296.2018,266.3108,93.7624,0,U,58748,999,13787,.79238346E-4,.192E-4,0
STARLINK-31160,2024-005X,2026-07-01T16:21:26.854848,15.27583523,.00013728,43.0030,296.2360,269.7679,90.3016,0,U,58749,999,13787,.48049318E-4,.106E-4,0
STARLINK-31179,2024-005Y,2026-07-01T16:10:22.833696,15.27579386,.00009511,43.0013,296.2460,283.8581,76.2165,0,U,58750,999,13787,.52802236E-4,.1191E-4,0
STARLINK-31127,2024-011A,2026-07-01T18:06:19.683936,15.30209633,.0001038,53.1593,203.8933,90.9111,269.2008,0,U,58765,999,13773,.43909207E-4,.942E-5,0
STARLINK-31114,2024-011B,2026-07-01T18:19:15.228480,15.30190658,.00014165,53.1592,201.8406,83.3518,276.7644,0,U,58766,999,13776,.8022087E-4,.2017E-4,0
STARLINK-31140,2024-011C,2026-07-01T18:11:53.710656,15.34394649,.00011359,53.1599,203.2069,80.2495,279.8635,0,U,58767,999,13774,.38752702E-4,.933E-5,0
STARLINK-31146,2024-011E,2026-07-01T18:20:59.093376,15.34393507,.00011209,53.1594,203.2460,88.4252,271.6879,0,U,58769,999,13774,.38874597E-4,.937E-5,0
STARLINK-31143,2024-011F,2026-07-01T18:30:04.560768,15.34391526,.00012125,53.1601,203.2860,97.6321,262.4819,0,U,58770,999,13774,.46978118E-4,.1211E-4,0
STARLINK-31135,2024-011G,2026-07-01T18:04:02.621568,15.30198632,.00010883,53.1590,201.7731,97.3939,262.7185,0,U,58771,999,13776,.2384242E-4,.347E-5,0
STARLINK-31136,2024-011H,2026-07-01T18:02:48.447168,15.34396025,.00011249,53.1583,203.1633,85.2707,274.8424,0,U,58772,999,13773,.6416452E-4,.1792E-4,0
STARLINK-31073,2024-011J,2026-07-01T18:10:52.764960,15.30191962,.00010407,53.1583,203.9075,59.3031,300.8072,0,U,58773,999,13773,-.23259305E-4,-.1048E-4,0
STARLINK-31122,2024-011K,2026-07-01T18:20:00.868416,15.30197379,.00011008,53.1587,203.9424,96.8305,263.2821,0,U,58774,999,13773,-.10321277E-4,-.665E-5,0
STARLINK-31123,2024-011L,2026-07-01T18:54:10.604736,15.34395319,.00011752,53.1600,202.6773,70.2744,289.8385,0,U,58775,999,1100,.52832288E-4,.1409E-4,0
STARLINK-31117,2024-011M,2026-07-01T18:30:39.516480,15.30214680,.00012691,53.1574,203.9885,64.5492,295.5640,0,U,58776,999,13773,.32171154E-3,.9185E-4,0
STARLINK-31132,2024-011N,2026-07-01T22:57:17.235072,15.31725684,.00013886,53.1607,112.0870,98.7514,261.3645,0,U,58777,999,13906,.10041191E-3,.2754E-4,0
STARLINK-31120,2024-011P,2026-07-01T18:17:57.217056,15.34392559,.00010804,53.1598,203.2224,81.5828,278.5297,0,U,58778,999,13774,.51493204E-4,.1364E-4,0
STARLINK-31142,2024-011Q,2026-07-01T18:27:35.793792,15.30196556,.00007863,53.1590,203.9731,90.0278,270.0813,0,U,58779,999,13773,.38653335E-4,.786E-5,0
STARLINK-31099,2024-011S,2026-07-01T18:23:02.376672,15.30194157,.00011788,53.1596,203.9535,83.6827,276.4308,0,U,58781,999,13773,.12072885E-4,-.2E-7,0
STARLINK-31047,2024-011U,2026-07-01T06:34:14.441664,15.34392869,.000135,53.1598,189.0763,86.4970,273.6187,0,U,58783,999,13789,.401622E-4,.981E-5,0
STARLINK-31039,2024-011V,2026-07-01T18:13:55.446528,15.30195416,.0001125,53.1592,203.9131,89.2719,270.8410,0,U,58784,999,13773,.23652263E-4,.341E-5,0
STARLINK-31034,2024-011W,2026-07-01T22:59:02.617152,15.34399731,.00012814,53.1597,98.5700,88.8665,271.2484,0,U,58785,999,13925,.34143213E-4,.777E-5,0
STARLINK-31024,2024-011X,2026-07-01T18:20:45.933792,15.30187979,.00006819,53.1589,201.8351,122.9710,237.1356,0,U,58786,999,13776,.84127566E-4,.2133E-4,0
STARLINK-31189,2024-012A,2026-07-01T21:02:29.275008,15.27585141,.00014271,43.0024,240.0201,275.0589,85.0099,0,U,58787,999,13870,-.38976E-5,-.369E-5,0
STARLINK-31185,2024-012B,2026-07-01T20:49:46.556544,15.27562116,.0000817,43.0004,240.8113,298.2589,61.8180,0,U,58788,999,13869,-.67983772E-4,-.2131E-4,0
STARLINK-31166,2024-012C,2026-07-01T12:01:36.265152,15.27581708,.00014695,43.0015,242.3579,275.9254,84.1431,0,U,58789,999,13864,.52703803E-4,.1188E-4,0
STARLINK-31187,2024-012D,2026-07-01T20:47:53.770848,15.27579560,.00012932,43.0004,240.8016,278.3576,81.7129,0,U,58790,999,13869,-.2931133E-5,-.343E-5,0
STARLINK-31162,2024-012E,2026-07-01T11:59:45.476160,15.27580862,.00014531,43.0011,242.3598,280.4506,79.6182,0,U,58791,999,13864,.90595659E-4,.2232E-4,0
STARLINK-31184,2024-012G,2026-07-01T21:17:17.336544,15.27600104,.00022363,43.0028,240.0996,284.9780,75.0824,0,U,58793,999,13870,.18565917E-3,.4853E-4,0
STARLINK-31192,2024-012H,2026-07-01T20:44:11.907744,15.27576395,.00018193,43.0035,240.7758,272.9007,87.1636,0,U,58794,999,13869,.8488852E-5,-.29E-6,0
STARLINK-31161,2024-012J,2026-07-01T21:20:59.776800,15.27583252,.00014724,43.0008,240.1186,294.4683,65.6015,0,U,58795,999,13870,-.3088781E-4,-.1112E-4,0
STARLINK-31195,2024-012K,2026-06-30T13:32:10.678272,15.27570983,.00023356,43.0070,248.2220,270.3949,89.6635,0,U,58796,999,13849,-.28788255E-4,-.1055E-4,0
STARLINK-31193,2024-012L,2026-07-01T10:34:50.993472,15.27583610,.00013117,43.0010,242.7660,273.7886,86.2816,0,U,58797,999,13863,.49026215E-4,.1087E-4,0
STARLINK-31168,2024-012M,2026-07-01T15:22:51.644928,15.27601726,.00010673,42.9981,241.6822,274.2239,85.8491,0,U,58798,999,13866,-.12248392E-3,-.3633E-4,0
STARLINK-31191,2024-012P,2026-07-01T21:11:43.269216,15.27589941,.00018493,43.0013,240.0649,281.9583,78.1061,0,U,58800,999,13870,-.22576509E-4,-.884E-5,0
STARLINK-31170,2024-012Q,2026-06-30T12:51:27.688032,15.27581972,.00012847,42.9998,248.0062,272.0542,88.0163,0,U,58801,999,13849,.40963476E-4,.865E-5,0
STARLINK-31141,2024-012S,2026-07-01T20:29:24.266112,15.27573139,.00007829,43.0000,240.6981,286.0462,74.0303,0,U,58803,999,13869,.33111724E-4,.649E-5,0
STARLINK-31188,2024-012T,2026-07-01T20:20:09.045888,15.27575648,.00002571,43.0001,240.6485,5.0217,355.0637,0,U,58804,999,13869,.53073899E-4,.1199E-4,0
STARLINK-31138,2024-012V,2026-07-01T20:23:50.872704,15.27577138,.00010671,43.0018,240.6649,277.8907,82.1824,0,U,58806,999,13869,.34551643E-4,.689E-5,0
STARLINK-31163,2024-012W,2026-07-01T21:00:38.178432,15.27581881,.00009249,43.0054,239.9981,266.0390,94.0356,0,U,58807,999,13870,.32155673E-4,.623E-5,0
STARLINK-31174,2024-012X,2026-07-01T20:58:47.476704,15.27577685,.00017408,43.0034,239.9932,272.9723,87.0930,0,U,58808,999,13870,.19017895E-4,.261E-5,0
STARLINK-31169,2024-012Y,2026-07-01T20:18:19.723104,15.27563554,.00009993,43.0000,240.6383,279.2601,80.8138,0,U,58809,999,13869,-.5378371E-5,-.41E-5,0
STARLINK-31233,2024-017A,2026-07-01T07:34:31.120608,15.30195622,.00013581,53.1617,36.4898,89.8215,270.2941,0,U,58826,999,13757,.48262687E-4,.107E-4,0
STARLINK-31271,2024-017B,2026-06-30T14:57:55.553760,15.30211345,.00010603,53.1591,39.9894,93.5179,266.5943,0,U,58827,999,13734,.1006926E-2,.29592E-3,0
STARLINK-31222,2024-017C,2026-07-01T21:02:59.372448,15.30209582,.00013089,53.1610,33.5894,93.1840,266.9310,0,U,58828,999,13754,.38883052E-4,.793E-5,0
STARLINK-31258,2024-017D,2026-07-01T21:50:05.946720,15.30207712,.00012509,53.1620,33.7923,92.6837,267.4307,0,U,58829,999,13754,.87902341E-4,.2246E-4,0
STARLINK-31253,2024-017E,2026-07-01T21:28:02.531136,15.31711449,.000112,53.1605,32.9896,105.3205,254.7920,0,U,58830,999,13755,.35652017E-4,.742E-5,0
STARLINK-31232,2024-017F,2026-07-01T21:14:35.702880,15.31716326,.00010171,53.1603,32.9306,93.6428,266.4690,0,U,58831,999,13755,.66828545E-4,.171E-4,0
STARLINK-31263,2024-017G,2026-07-01T19:44:31.770816,15.34402067,.00009078,53.1607,22.6001,94.2270,265.8837,0,U,58832,999,13780,.17212718E-3,.5444E-4,0
STARLINK-31171,2024-017J,2026-07-01T22:00:01.999584,15.33513075,.00011706,53.1602,10.1542,79.8982,194.7627,0,U,58834,999,576,.17085077E-2,.56174E-3,0
STARLINK-31246,2024-017K,2026-07-01T21:36:25.532064,15.30201128,.00012726,53.1621,33.7310,94.4830,265.6316,0,U,58835,999,13754,.16665009E-3,.458E-4,0
STARLINK-31251,2024-017L,2026-07-01T21:47:03.596064,15.30204774,.00011785,53.1615,33.7793,89.3407,270.7728,0,U,58836,999,13765,.90252474E-4,.2315E-4,0
STARLINK-31249,2024-017N,2026-07-01T20:22:07.419936,15.30198438,.00011107,53.1612,34.1226,71.8882,288.2240,0,U,58838,999,13753,.31851737E-4,.584E-5,0
STARLINK-31250,2024-017P,2026-07-01T19:38:28.162464,15.34405031,.00010281,53.1606,22.5749,94.2380,265.8740,0,U,58839,999,13764,.12710107E-3,.3921E-4,0
STARLINK-31248,2024-017Q,2026-07-01T21:42:46.718496,15.34403379,.00019282,53.1625,44.3972,106.7498,253.3717,0,U,58840,999,13750,.51005123E-4,.1347E-4,0
STARLINK-31236,2024-017R,2026-07-01T20:31:14.562624,15.30206628,.00011631,53.1617,34.1608,90.7805,269.3329,0,U,58841,999,13753,.83074968E-4,.2103E-4,0
STARLINK-31228,2024-017S,2026-07-01T20:26:40.924320,15.30209776,.000128,53.1610,34.1415,91.3040,268.8107,0,U,58842,999,13753,.17575961E-4,.162E-5,0
